NOAA 15                 
1 25338U 98030A   25068.88460189  .00000339  00000+0  15740-3 0  9990
2 25338  98.5459  96.1816 0009117 266.8558  93.1580 14.26903753395072
DMSP 5D-3 F16 (USA 172) 
1 28054U 03048A   25068.95893096  .00000327  00000+0  19506-3 0  9999
2 28054  99.0193  83.9424 0007694  29.4991 356.5289 14.14299952103864
NOAA 18                 
1 28654U 05018A   25068.88880005  .00000358  00000+0  21318-3 0  9990
2 28654  98.8472 149.3856 0014505  33.9438 326.2660 14.13536521 20712
METEOSAT-9 (MSG-2)      
1 28912U 05049B   25068.65664687  .00000110  00000+0  00000+0 0  9999
2 28912   8.3005  58.5453 0000766 336.4003  54.8167  1.00278520  2354
EWS-G1 (GOES 13)        
1 29155U 06018A   25068.75684542 -.00000194  00000+0  00000+0 0  9992
2 29155   3.3216  82.0854 0066033 261.7840  95.9890  0.98833077 38659
DMSP 5D-3 F17 (USA 191) 
1 29522U 06050A   25068.91750304  .00000389  00000+0  22418-3 0  9990
2 29522  98.7429  80.0132 0009053 305.7225  54.3105 14.14773185946767
FENGYUN 3A              
1 32958U 08026A   25068.81704168  .00000314  00000+0  16996-3 0  9990
2 32958  98.6383  14.7509 0009387  32.6632 327.5123 14.19384808869520
NOAA 19                 
1 33591U 09005A   25068.88023584  .00000339  00000+0  20511-3 0  9990
2 33591  99.0084 133.0333 0012813 261.5885  98.3835 14.13304126828895
GOES 14                 
1 35491U 09033A   25068.52105213 -.00000086  00000+0  00000+0 0  9990
2 35491   0.4765  89.5152 0001156 178.0401 339.4093  1.00268928  1930
DMSP 5D-3 F18 (USA 210) 
1 35951U 09057A   25068.90727122  .00000507  00000+0  28695-3 0  9999
2 35951  98.8509  47.2330 0011933 126.8844 233.3424 14.14532923793940
EWS-G2 (GOES 15)        
1 36411U 10008A   25068.76892178  .00000021  00000+0  00000+0 0  9994
2 36411   0.0775  92.5522 0003951 188.4716 224.7562  1.00270730 54988
COMS 1                  
1 36744U 10032A   25068.85360168 -.00000361  00000+0  00000+0 0  9997
2 36744   3.6140  81.3803 0001037 260.7727 261.0595  1.00272531 46431
FENGYUN 3B              
1 37214U 10059A   25068.94456547  .00000210  00000+0  13242-3 0  9994
2 37214  99.0261 106.3916 0023002  62.9955   7.0826 14.14690273741782
SUOMI NPP               
1 37849U 11061A   25068.91085552  .00000177  00000+0  10484-3 0  9990
2 37849  98.7498   9.2312 0001128 148.0049 212.1195 14.19569083692579
METEOSAT-10 (MSG-3)     
1 38552U 12035B   25068.75675854 -.00000023  00000+0  00000+0 0  9996
2 38552   3.5750  62.0310 0001865 250.8245 127.2249  1.00273532 46205
METOP-B                 
1 38771U 12049A   25068.89145240  .00000271  00000+0  14372-3 0  9995
2 38771  98.5902 125.6365 0000451 127.5367 232.5852 14.21447640647300
INSAT-3D                
1 39216U 13038B   25068.82752866 -.00000357  00000+0  00000+0 0  9995
2 39216   0.7237  88.9601 0001977 244.7125 261.4648  1.00276000 42422
FENGYUN 3C              
1 39260U 13052A   25068.90409350  .00000279  00000+0  16340-3 0  9996
2 39260  98.4493  60.5970 0013515 281.6665  78.2993 14.15576317592874
METEOR-M 2              
1 40069U 14037A   25068.89000240  .00000324  00000+0  16794-3 0  9996
2 40069  98.4618  57.5980 0004865 315.3564  44.7222 14.21236153553362
HIMAWARI-8              
1 40267U 14060A   25068.89420030 -.00000293  00000+0  00000+0 0  9990
2 40267   0.0194 150.2391 0000664 207.6882 272.4710  1.00271198 38097
FENGYUN 2G              
1 40367U 14090A   25068.92957781 -.00000314  00000+0  00000+0 0  9990
2 40367   4.4587  78.4377 0000941 131.0186  32.2257  1.00261760 37341
METEOSAT-11 (MSG-4)     
1 40732U 15034A   25068.87475457  .00000045  00000+0  00000+0 0  9994
2 40732   2.0394  72.1671 0000812 298.7106 121.1284  1.00266835  2567
ELEKTRO-L 2             
1 41105U 15074A   25068.75389149 -.00000133  00000+0  00000+0 0  9991
2 41105   5.5193  76.2310 0003231 224.1207 124.1778  1.00272278 33849
INSAT-3DR               
1 41752U 16054A   25068.90461478 -.00000094  00000+0  00000+0 0  9997
2 41752   0.0353 102.9480 0012644 178.3815 286.1366  1.00271285 31143
HIMAWARI-9              
1 41836U 16064A   25068.89420030 -.00000293  00000+0  00000+0 0  9999
2 41836   0.0206 135.5784 0001129 214.5460 280.3361  1.00270581 30550
GOES 16                 
1 41866U 16071A   25068.88435731 -.00000265  00000+0  00000+0 0  9992
2 41866   0.0918 286.4026 0001865  71.7707  52.7234  1.00269043 30441
FENGYUN 4A              
1 41882U 16077A   25064.77181397 -.00000142  00000+0  00000+0 0  9990
2 41882   1.1256  85.2089 0004762 172.6115 332.1954  1.00660302 30237
CYGFM05                 
1 41884U 16078A   25068.35381745  .00022858  00000+0  61075-3 0  9990
2 41884  34.9625  50.2757 0007804 120.4833 239.6657 15.37124995456764
CYGFM04                 
1 41885U 16078B   25068.93530553  .00022276  00000+0  56974-3 0  9994
2 41885  34.9376  27.3582 0007037 151.4490 208.6615 15.38473611456976
CYGFM02                 
1 41886U 16078C   25068.92812206  .00022846  00000+0  56498-3 0  9996
2 41886  34.9466  28.4073 0008744 139.6632 220.4736 15.39482018457076
CYGFM01                 
1 41887U 16078D   25068.94698226  .00021214  00000+0  56057-3 0  9992
2 41887  34.9456  50.4071 0007146 109.8744 250.2744 15.37481862456788
CYGFM08                 
1 41888U 16078E   25068.33383971  .00023874  00000+0  61506-3 0  9993
2 41888  34.9489  39.9177 0009384 129.0263 231.1292 15.38223061456894
CYGFM07                 
1 41890U 16078G   25068.30882082  .00024038  00000+0  61013-3 0  9996
2 41890  34.9507  30.5682 0007681 150.9451 209.1696 15.38692212456897
CYGFM03                 
1 41891U 16078H   25068.95078763  .00021508  00000+0  54917-3 0  9995
2 41891  34.9456  27.8979 0006345 140.8987 219.2191 15.38536248456974
FENGYUN 3D              
1 43010U 17072A   25068.90619428  .00000243  00000+0  13690-3 0  9995
2 43010  98.9510  31.6738 0000856 343.1472  16.9675 14.19579687379115
NOAA 20 (JPSS-1)        
1 43013U 17073A   25068.85644220  .00000176  00000+0  10421-3 0  9995
2 43013  98.7338   8.6510 0001531 131.1097 229.0212 14.19566906378590
GOES 17                 
1 43226U 18022A   25068.87888385 -.00000110  00000+0  00000+0 0  9997
2 43226   0.0503 314.8677 0001195 119.4369 305.4606  1.00271900 25766
FENGYUN 2H              
1 43491U 18050A   25068.84387106 -.00000145  00000+0  00000+0 0  9992
2 43491   1.8328  84.5286 0001041 181.1884 284.8398  1.00275790 24789
METOP-C                 
1 43689U 18087A   25068.85791208  .00000261  00000+0  13928-3 0  9999
2 43689  98.6855 130.5218 0002143  75.2487 284.8928 14.21482851328860
GEO-KOMPSAT-2A          
1 43823U 18100A   25068.82752866 -.00000362  00000+0  00000+0 0  9995
2 43823   0.0371  34.9335 0001373   7.5217 191.4441  1.00270415 22970
METEOR-M2 2             
1 44387U 19038A   25068.88528702  .00000280  00000+0  14150-3 0  9991
2 44387  98.8655  45.7097 0000264 334.2104  25.9061 14.24156328295207
ARKTIKA-M 1             
1 47719U 21016A   25063.44954264  .00000077  00000+0  00000+0 0  9994
2 47719  63.1337 120.9032 7055401 268.5046  17.0510  2.00626230 29379
FENGYUN 3E              
1 49008U 21062A   25068.88576864  .00000093  00000+0  64671-4 0  9994
2 49008  98.7429  72.7267 0001734  27.0945 333.0321 14.19847271190699
GOES 18                 
1 51850U 22021A   25068.72956499  .00000079  00000+0  00000+0 0  9992
2 51850   0.0222 334.1895 0000107  25.6698 293.4186  1.00270521 11142
NOAA 21 (JPSS-2)        
1 54234U 22150A   25068.89313819  .00000203  00000+0  11707-3 0  9994
2 54234  98.7192   9.1320 0002761  86.7356 273.4136 14.19550827120676
METEOSAT-12 (MTG-I1)    
1 54743U 22170C   25068.89280990 -.00000025  00000+0  00000+0 0  9997
2 54743   0.6156  34.7401 0002236 273.7830 180.3918  1.00269488  8326
TIANMU-1 03             
1 55973U 23039A   25068.91257028  .00019434  00000+0  62918-3 0  9990
2 55973  97.4894 226.0932 0003642 327.4696  32.6321 15.32070944109404
TIANMU-1 04             
1 55974U 23039B   25068.93799128  .00019013  00000+0  61196-3 0  9995
2 55974  97.4821 225.4674 0004519 321.7788  38.3132 15.32260119109402
TIANMU-1 05             
1 55975U 23039C   25068.88094094  .00018758  00000+0  60773-3 0  9995
2 55975  97.4868 225.8472 0003452 349.3854  10.7314 15.32055111109386
TIANMU-1 06             
1 55976U 23039D   25068.88839033  .00019656  00000+0  63070-3 0  9997
2 55976  97.4882 226.1183 0003893 345.7052  14.4079 15.32354375109399
METEOR-M2 3             
1 57166U 23091A   25068.86662744  .00000044  00000+0  38332-4 0  9994
2 57166  98.6741 126.6467 0005094  83.4954 276.6804 14.23981836 88436
TIANMU-1 07             
1 57399U 23101A   25068.90293647  .00011909  00000+0  50453-3 0  9990
2 57399  97.3247 125.1405 0003746 359.4906   0.6326 15.23294654 90794
TIANMU-1 08             
1 57400U 23101B   25068.86955790  .00010722  00000+0  45425-3 0  9997
2 57400  97.3236 124.9484 0005910 357.7723   2.3487 15.23309855 90788
TIANMU-1 09             
1 57401U 23101C   25068.85371399  .00011563  00000+0  48923-3 0  9994
2 57401  97.3191 124.6157 0005615 354.6755   5.4422 15.23337297 90780
TIANMU-1 10             
1 57402U 23101D   25068.88565386  .00011827  27944-7  49823-3 0  9996
2 57402  97.3272 125.2040 0007502 349.2659  10.8417 15.23361314 90780
FENGYUN 3F              
1 57490U 23111A   25068.88942499  .00000168  00000+0  99727-4 0  9999
2 57490  98.7357 141.1717 0001761  75.9511 284.1861 14.20004524 82979
ARKTIKA-M 2             
1 58584U 23198A   25062.19393504  .00000162  00000+0  00000+0 0  9999
2 58584  63.2359 206.0334 6889758 269.2176  18.1238  2.00607671  8866
TIANMU-1 11             
1 58645U 23205A   25068.88357526  .00010405  00000+0  47816-3 0  9993
2 58645  97.3828  93.7817 0010100 188.4448 171.6619 15.20513151 66817
